{"type": "FeatureCollection", "features": [ {"type": "Feature", "properties": {"norad_id": 66897, "name": "STARLINK-36079", "group": "last-30-days", "lat": -52.963942128747476, "lon": -41.256666609418644, "alt_km": 345.24535033745997, "timestamp": "2025-12-18T23:35:47.782821+00:00", "meta": {"OBJECT_NAME": "STARLINK-36079", "OBJECT_ID": "2025-283V", "EPOCH": "2025-12-18T14:00:03.000384", "MEAN_MOTION": 15.78043739, "ECCENTRICITY": 0.00010666, "INCLINATION": 53.1551, "RA_OF_ASC_NODE": 44.3568, "ARG_OF_PERICENTER": 64.8478, "MEAN_ANOMALY": 97.2793, "EPHEMERIS_TYPE": 0, "CLASSIFICATION_TYPE": "U", "NORAD_CAT_ID": 66897, "ELEMENT_SET_NO": 999, "REV_AT_EPOCH": 336, "BSTAR": -0.010050971, "MEAN_MOTION_DOT": -0.01532097, "MEAN_MOTION_DDOT": 0}, "tle": {"line1": "1 66897U 25283V   25352.58336806 -.01532097  00000+0 -10051-1 0  9998", "line2": "2 66897  53.1551  44.3568 0001066  64.8478  97.2793 15.78043739  3364"}}, "geometry": {"type": "Point", "coordinates": [-41.256666609418644, -52.963942128747476]}}, {"type": "Feature", "properties": {"norad_id": 66898, "name": "STARLINK-36065", "group": "last-30-days", "lat": -52.71040213061359, "lon": -37.61095217544718, "alt_km": 345.5520519877755, "timestamp": "2025-12-18T23:35:47.782832+00:00", "meta": {"OBJECT_NAME": "STARLINK-36065", "OBJECT_ID": "2025-283W", "EPOCH": "2025-12-18T14:00:03.000384", "MEAN_MOTION": 15.77943872, "ECCENTRICITY": 0.00011439, "INCLINATION": 53.1551, "RA_OF_ASC_NODE": 44.3514, "ARG_OF_PERICENTER": 57.7998, "MEAN_ANOMALY": 106.7064, "EPHEMERIS_TYPE": 0, "CLASSIFICATION_TYPE": "U", "NORAD_CAT_ID": 66898, "ELEMENT_SET_NO": 999, "REV_AT_EPOCH": 336, "BSTAR": -0.010191096, "MEAN_MOTION_DOT": -0.01544694, "MEAN_MOTION_DDOT": 0}, "tle": {"line1": "1 66898U 25283W   25352.58336806 -.01544694  00000+0 -10191-1 0  9990", "line2": "2 66898  53.1551  44.3514 0001143  57.7998 106.7064 15.77943872  3363"}}, "geometry": {"type": "Point", "coordinates": [-37.61095217544718, -52.71040213061359]}}, {"type": "Feature", "properties": {"norad_id": 66899, "name": "STARLINK-36064", "group": "last-30-days", "lat": -52.35587110788747, "lon": -34.10198922721026, "alt_km": 345.8683919053574, "timestamp": "2025-12-18T23:35:47.782842+00:00", "meta": {"OBJECT_NAME": "STARLINK-36064", "OBJECT_ID": "2025-283X", "EPOCH": "2025-12-18T14:00:03.000384", "MEAN_MOTION": 15.778542, "ECCENTRICITY": 0.00011663, "INCLINATION": 53.1547, "RA_OF_ASC_NODE": 44.3467, "ARG_OF_PERICENTER": 67.7094, "MEAN_ANOMALY": 99.0992, "EPHEMERIS_TYPE": 0, "CLASSIFICATION_TYPE": "U", "NORAD_CAT_ID": 66899, "ELEMENT_SET_NO": 999, "REV_AT_EPOCH": 330, "BSTAR": -0.010274111, "MEAN_MOTION_DOT": -0.01550187, "MEAN_MOTION_DDOT": 0}, "tle": {"line1": "1 66899U 25283X   25352.58336806 -.01550187  00000+0 -10274-1 0  9997", "line2": "2 66899  53.1547  44.3467 0001166  67.7094  99.0992 15.77854200  3303"}}, "geometry": {"type": "Point", "coordinates": [-34.10198922721026, -52.35587110788747]}}, {"type": "Feature", "properties": {"norad_id": 66900, "name": "STARLINK-36074", "group": "last-30-days", "lat": -51.895251983774365, "lon": -30.627600051310438, "alt_km": 346.16978210323487, "timestamp": "2025-12-18T23:35:47.782852+00:00", "meta": {"OBJECT_NAME": "STARLINK-36074", "OBJECT_ID": "2025-283Y", "EPOCH": "2025-12-18T14:00:03.000384", "MEAN_MOTION": 15.7775979, "ECCENTRICITY": 0.00011648, "INCLINATION": 53.155, "RA_OF_ASC_NODE": 44.3415, "ARG_OF_PERICENTER": 69.0871, "MEAN_ANOMALY": 100.0606, "EPHEMERIS_TYPE": 0, "CLASSIFICATION_TYPE": "U", "NORAD_CAT_ID": 66900, "ELEMENT_SET_NO": 999, "REV_AT_EPOCH": 336, "BSTAR": -0.010462269, "MEAN_MOTION_DOT": -0.01569074, "MEAN_MOTION_DDOT": 0}, "tle": {"line1": "1 66900U 25283Y   25352.58336806 -.01569074  00000+0 -10462-1 0  9994", "line2": "2 66900  53.1550  44.3415 0001164  69.0871 100.0606 15.77759790  3368"}}, "geometry": {"type": "Point", "coordinates": [-30.627600051310438, -51.895251983774365]}}, {"type": "Feature", "properties": {"norad_id": 66901, "name": "STARLINK-36043", "group": "last-30-days", "lat": -51.35891107569623, "lon": -27.36963013929059, "alt_km": 346.24603369376746, "timestamp": "2025-12-18T23:35:47.782864+00:00", "meta": {"OBJECT_NAME": "STARLINK-36043", "OBJECT_ID": "2025-283Z", "EPOCH": "2025-12-18T14:00:03.000384", "MEAN_MOTION": 15.77687616, "ECCENTRICITY": 9.902e-05, "INCLINATION": 53.1548, "RA_OF_ASC_NODE": 44.3372, "ARG_OF_PERICENTER": 79.1121, "MEAN_ANOMALY": 92.2396, "EPHEMERIS_TYPE": 0, "CLASSIFICATION_TYPE": "U", "NORAD_CAT_ID": 66901, "ELEMENT_SET_NO": 999, "REV_AT_EPOCH": 336, "BSTAR": -0.010515585, "MEAN_MOTION_DOT": -0.01571435, "MEAN_MOTION_DDOT": 0}, "tle": {"line1": "1 66901U 25283Z   25352.58336806 -.01571435  00000+0 -10516-1 0  9999", "line2": "2 66901  53.1548  44.3372 0000990  79.1121  92.2396 15.77687616  3369"}}, "geometry": {"type": "Point", "coordinates": [-27.36963013929059, -51.35891107569623]}}, {"type": "Feature", "properties": {"norad_id": 66902, "name": "STARLINK-35983", "group": "last-30-days", "lat": -50.70241786417531, "lon": -24.044123549904818, "alt_km": 346.61331589923884, "timestamp": "2025-12-18T23:35:47.782876+00:00", "meta": {"OBJECT_NAME": "STARLINK-35983", "OBJECT_ID": "2025-283AA", "EPOCH": "2025-12-18T14:00:03.000384", "MEAN_MOTION": 15.77573195, "ECCENTRICITY": 0.00010126, "INCLINATION": 53.1548, "RA_OF_ASC_NODE": 44.3321, "ARG_OF_PERICENTER": 71.1353, "MEAN_ANOMALY": 102.5918, "EPHEMERIS_TYPE": 0, "CLASSIFICATION_TYPE": "U", "NORAD_CAT_ID": 66902, "ELEMENT_SET_NO": 999, "REV_AT_EPOCH": 336, "BSTAR": -0.010692674, "MEAN_MOTION_DOT": -0.01587304, "MEAN_MOTION_DDOT": 0}, "tle": {"line1": "1 66902U 25283AA  25352.58336806 -.01587304  00000+0 -10693-1 0  9998", "line2": "2 66902  53.1548  44.3321 0001012  71.1353 102.5918 15.77573195  3360"}}, "geometry": {"type": "Point", "coordinates": [-24.044123549904818, -50.70241786417531]}}, {"type": "Feature", "properties": {"norad_id": 66903, "name": "STARLINK-36077", "group": "last-30-days", "lat": -50.00233580066649, "lon": -21.01002316907944, "alt_km": 346.80737845167005, "timestamp": "2025-12-18T23:35:47.782888+00:00", "meta": {"OBJECT_NAME": "STARLINK-36077", "OBJECT_ID": "2025-283AB", "EPOCH": "2025-12-18T14:00:03.000384", "MEAN_MOTION": 15.77504447, "ECCENTRICITY": 0.00011096, "INCLINATION": 53.1553, "RA_OF_ASC_NODE": 44.3275, "ARG_OF_PERICENTER": 65.255, "MEAN_ANOMALY": 110.641, "EPHEMERIS_TYPE": 0, "CLASSIFICATION_TYPE": "U", "NORAD_CAT_ID": 66903, "ELEMENT_SET_NO": 999, "REV_AT_EPOCH": 336, "BSTAR": -0.010757, "MEAN_MOTION_DOT": -0.01591371, "MEAN_MOTION_DDOT": 0}, "tle": {"line1": "1 66903U 25283AB  25352.58336806 -.01591371  00000+0 -10757-1 0  9999", "line2": "2 66903  53.1553  44.3275 0001109  65.2550 110.6410 15.77504447  3366"}}, "geometry": {"type": "Point", "coordinates": [-21.01002316907944, -50.00233580066649]}}, {"type": "Feature", "properties": {"norad_id": 66904, "name": "STARLINK-36059", "group": "last-30-days", "lat": -49.216173445339145, "lon": -18.039070560694437, "alt_km": 346.8886642299576, "timestamp": "2025-12-18T23:35:47.782898+00:00", "meta": {"OBJECT_NAME": "STARLINK-36059", "OBJECT_ID": "2025-283AC", "EPOCH": "2025-12-18T14:00:03.000384", "MEAN_MOTION": 15.77429172, "ECCENTRICITY": 9.873e-05, "INCLINATION": 53.155, "RA_OF_ASC_NODE": 44.3223, "ARG_OF_PERICENTER": 66.3517, "MEAN_ANOMALY": 111.7467, "EPHEMERIS_TYPE": 0, "CLASSIFICATION_TYPE": "U", "NORAD_CAT_ID": 66904, "ELEMENT_SET_NO": 999, "REV_AT_EPOCH": 336, "BSTAR": -0.010872939, "MEAN_MOTION_DOT": -0.01601436, "MEAN_MOTION_DDOT": 0}, "tle": {"line1": "1 66904U 25283AC  25352.58336806 -.01601436  00000+0 -10873-1 0  9993", "line2": "2 66904  53.1550  44.3223 0000987  66.3517 111.7467 15.77429172  3360"}}, "geometry": {"type": "Point", "coordinates": [-18.039070560694437, -49.216173445339145]}}, {"type": "Feature", "properties": {"norad_id": 66905, "name": "STARLINK-36075", "group": "last-30-days", "lat": -48.38602955662275, "lon": -15.257802330442152, "alt_km": 347.0076909893496, "timestamp": "2025-12-18T23:35:47.782908+00:00", "meta": {"OBJECT_NAME": "STARLINK-36075", "OBJECT_ID": "2025-283AD", "EPOCH": "2025-12-18T14:00:03.000384", "MEAN_MOTION": 15.77382245, "ECCENTRICITY": 9.982e-05, "INCLINATION": 53.1551, "RA_OF_ASC_NODE": 44.3186, "ARG_OF_PERICENTER": 66.9716, "MEAN_ANOMALY": 113.2152, "EPHEMERIS_TYPE": 0, "CLASSIFICATION_TYPE": "U", "NORAD_CAT_ID": 66905, "ELEMENT_SET_NO": 999, "REV_AT_EPOCH": 336, "BSTAR": -0.010934794, "MEAN_MOTION_DOT": -0.01638342, "MEAN_MOTION_DDOT": 0}, "tle": {"line1": "1 66905U 25283AD  25352.58336806 -.01638342  00000+0 -10935-1 0  9999", "line2": "2 66905  53.1551  44.3186 0000998  66.9716 113.2152 15.77382245  3366"}}, "geometry": {"type": "Point", "coordinates": [-15.257802330442152, -48.38602955662275]}}, {"type": "Feature", "properties": {"norad_id": 66906, "name": "1998-067XS", "group": "last-30-days", "lat": 12.930921563985946, "lon": 121.9272611830397, "alt_km": 414.71067506714826, "timestamp": "2025-12-18T23:35:47.782918+00:00", "meta": {"OBJECT_NAME": "1998-067XS", "OBJECT_ID": "1998-067XS", "EPOCH": "2025-12-18T14:14:47.325984", "MEAN_MOTION": 15.50877887, "ECCENTRICITY": 0.00030668, "INCLINATION": 51.6311, "RA_OF_ASC_NODE": 113.3804, "ARG_OF_PERICENTER": 230.517, "MEAN_ANOMALY": 129.5548, "EPHEMERIS_TYPE": 0, "CLASSIFICATION_TYPE": "U", "NORAD_CAT_ID": 66906, "ELEMENT_SET_NO": 999, "REV_AT_EPOCH": 252, "BSTAR": 0.00040765177, "MEAN_MOTION_DOT": 0.00023614, "MEAN_MOTION_DDOT": 0}, "tle": {"line1": "1 66906U 98067XS  25352.59360331  .00023614  00000+0  40765-3 0  9994", "line2": "2 66906  51.6311 113.3804 0003066 230.5170 129.5548 15.50877887  2528"}}, "geometry": {"type": "Point", "coordinates": [121.9272611830397, 12.930921563985946]}}]}